{
  "links" : {
    "next" : "https://api.nasa.gov/neo/rest/v1/feed?start_date=2008-01-09&end_date=2008-01-09&detailed=true&api_key=t0TVs3DtDT2H8Oy2Zy8m2eVrNsAVKAexjcZXUckd",
    "prev" : "https://api.nasa.gov/neo/rest/v1/feed?start_date=2008-01-07&end_date=2008-01-07&detailed=true&api_key=t0TVs3DtDT2H8Oy2Zy8m2eVrNsAVKAexjcZXUckd",
    "self" : "https://api.nasa.gov/neo/rest/v1/feed?start_date=2008-01-08&end_date=2008-01-08&detailed=true&api_key=t0TVs3DtDT2H8Oy2Zy8m2eVrNsAVKAexjcZXUckd"
  },
  "element_count" : 9,
  "near_earth_objects" : {
    "2008-01-08" : [ {
      "links" : {
        "self" : "https://api.nasa.gov/neo/rest/v1/neo/2177049?api_key=t0TVs3DtDT2H8Oy2Zy8m2eVrNsAVKAexjcZXUckd"
      },
      "neo_reference_id" : "2177049",
      "name" : "177049 (2003 EE16)",
      "nasa_jpl_url" : "http://ssd.jpl.nasa.gov/sbdb.cgi?sstr=2177049",
      "absolute_magnitude_h" : 19.7,
      "estimated_diameter" : {
        "kilometers" : {
          "estimated_diameter_min" : 0.3051792326,
          "estimated_diameter_max" : 0.6824015094
        },
        "meters" : {
          "estimated_diameter_min" : 305.1792325939,
          "estimated_diameter_max" : 682.4015094011
        },
        "miles" : {
          "estimated_diameter_min" : 0.1896295249,
          "estimated_diameter_max" : 0.4240245083
        },
        "feet" : {
          "estimated_diameter_min" : 1001.2442334633,
          "estimated_diameter_max" : 2238.8501681036
        }
      },
      "is_potentially_hazardous_asteroid" : true,
      "close_approach_data" : [ {
        "close_approach_date" : "2008-01-08",
        "epoch_date_close_approach" : 1199779200000,
        "relative_velocity" : {
          "kilometers_per_second" : "11.6068909324",
          "kilometers_per_hour" : "41784.8073566771",
          "miles_per_hour" : "25963.4543267086"
        },
        "miss_distance" : {
          "astronomical" : "0.2513156777",
          "lunar" : "97.7618026733",
          "kilometers" : "37596292",
          "miles" : "23361252"
        },
        "orbiting_body" : "Earth"
      } ],
      "orbital_data" : {
        "orbit_id" : "79",
        "orbit_determination_date" : "2017-04-06 09:25:53",
        "orbit_uncertainty" : "0",
        "minimum_orbit_intersection" : ".000142954",
        "jupiter_tisserand_invariant" : "4.495",
        "epoch_osculation" : "2458000.5",
        "eccentricity" : ".6144685576724472",
        "semi_major_axis" : "1.417299915877861",
        "inclination" : ".650214690683878",
        "ascending_node_longitude" : "127.1351985119613",
        "orbital_period" : "616.2984406568538",
        "perihelion_distance" : ".546413680779111",
        "perihelion_argument" : "259.5974516853921",
        "aphelion_distance" : "2.288186150976612",
        "perihelion_time" : "2458125.869574091676",
        "mean_anomaly" : "286.7675468643076",
        "mean_motion" : ".5841325829354854",
        "equinox" : "J2000"
      }
    }, {
      "links" : {
        "self" : "https://api.nasa.gov/neo/rest/v1/neo/3174184?api_key=t0TVs3DtDT2H8Oy2Zy8m2eVrNsAVKAexjcZXUckd"
      },
      "neo_reference_id" : "3174184",
      "name" : "(2004 BG41)",
      "nasa_jpl_url" : "http://ssd.jpl.nasa.gov/sbdb.cgi?sstr=3174184",
      "absolute_magnitude_h" : 24.4,
      "estimated_diameter" : {
        "kilometers" : {
          "estimated_diameter_min" : 0.0350392641,
          "estimated_diameter_max" : 0.0783501764
        },
        "meters" : {
          "estimated_diameter_min" : 35.0392641108,
          "estimated_diameter_max" : 78.3501764334
        },
        "miles" : {
          "estimated_diameter_min" : 0.0217723826,
          "estimated_diameter_max" : 0.0486845275
        },
        "feet" : {
          "estimated_diameter_min" : 114.9582192654,
          "estimated_diameter_max" : 257.0543928497
        }
      },
      "is_potentially_hazardous_asteroid" : false,
      "close_approach_data" : [ {
        "close_approach_date" : "2008-01-08",
        "epoch_date_close_approach" : 1199779200000,
        "relative_velocity" : {
          "kilometers_per_second" : "8.3884585114",
          "kilometers_per_hour" : "30198.4506411924",
          "miles_per_hour" : "18764.1428442454"
        },
        "miss_distance" : {
          "astronomical" : "0.0131288769",
          "lunar" : "5.1071329117",
          "kilometers" : "1964052",
          "miles" : "1220405.375"
        },
        "orbiting_body" : "Earth"
      } ],
      "orbital_data" : {
        "orbit_id" : "15",
        "orbit_determination_date" : "2017-04-06 09:13:15",
        "orbit_uncertainty" : "0",
        "minimum_orbit_intersection" : ".0135172",
        "jupiter_tisserand_invariant" : "3.173",
        "epoch_osculation" : "2458000.5",
        "eccentricity" : ".6099499391599853",
        "semi_major_axis" : "2.509106338665483",
        "inclination" : "2.978222520122809",
        "ascending_node_longitude" : "301.1907079389383",
        "orbital_period" : "1451.700506112319",
        "perihelion_distance" : ".9786770800505382",
        "perihelion_argument" : "153.4537546135031",
        "aphelion_distance" : "4.039535597280428",
        "perihelion_time" : "2457375.470143810026",
        "mean_anomaly" : "154.99805041122",
        "mean_motion" : ".2479850344366737",
        "equinox" : "J2000"
      }
    }, {
      "links" : {
        "self" : "https://api.nasa.gov/neo/rest/v1/neo/3395309?api_key=t0TVs3DtDT2H8Oy2Zy8m2eVrNsAVKAexjcZXUckd"
      },
      "neo_reference_id" : "3395309",
      "name" : "(2007 VL243)",
      "nasa_jpl_url" : "http://ssd.jpl.nasa.gov/sbdb.cgi?sstr=3395309",
      "absolute_magnitude_h" : 17.8,
      "estimated_diameter" : {
        "kilometers" : {
          "estimated_diameter_min" : 0.7320739893,
          "estimated_diameter_max" : 1.6369672047
        },
        "meters" : {
          "estimated_diameter_min" : 732.0739893473,
          "estimated_diameter_max" : 1636.96720474
        },
        "miles" : {
          "estimated_diameter_min" : 0.4548895468,
          "estimated_diameter_max" : 1.017163949
        },
        "feet" : {
          "estimated_diameter_min" : 2401.8176272101,
          "estimated_diameter_max" : 5370.6274839991
        }
      },
      "is_potentially_hazardous_asteroid" : false,
      "close_approach_data" : [ {
        "close_approach_date" : "2008-01-08",
        "epoch_date_close_approach" : 1199779200000,
        "relative_velocity" : {
          "kilometers_per_second" : "30.8892830218",
          "kilometers_per_hour" : "111201.4188785768",
          "miles_per_hour" : "69096.2371915246"
        },
        "miss_distance" : {
          "astronomical" : "0.4326223671",
          "lunar" : "168.2901000977",
          "kilometers" : "64719388",
          "miles" : "40214764"
        },
        "orbiting_body" : "Earth"
      } ],
      "orbital_data" : {
        "orbit_id" : "12",
        "orbit_determination_date" : "2017-04-06 09:05:08",
        "orbit_uncertainty" : "2",
        "minimum_orbit_intersection" : ".389058",
        "jupiter_tisserand_invariant" : "5.820",
        "epoch_osculation" : "2458000.5",
        "eccentricity" : ".7286521088053615",
        "semi_major_axis" : ".9651781923947825",
        "inclination" : "43.33364962216289",
        "ascending_node_longitude" : "114.7278122039589",
        "orbital_period" : "346.3456026070245",
        "perihelion_distance" : ".2618990671333774",
        "perihelion_argument" : "91.25179567506268",
        "aphelion_distance" : "1.668457317656188",
        "perihelion_time" : "2457965.197620763889",
        "mean_anomaly" : "36.69414720249761",
        "mean_motion" : "1.039424197362968",
        "equinox" : "J2000"
      }
    } ]
  }
}